{
  "type": "FeatureCollection",
  "features": [
    {
      "type": "Feature",
      "properties": {
        "norad_id": 58701,
        "name": "TIANMU-1 16",
        "group": "weather",
        "lat": 29.254067622968012,
        "lon": -0.3615492257120868,
        "alt_km": 491.8886757845721,
        "timestamp": "2025-12-20T14:38:01.601142+00:00",
        "meta_object_name": "TIANMU-1 16",
        "meta_object_id": "2024-004B",
        "meta_epoch": "2025-12-20T06:05:58.526304",
        "meta_mean_motion": 15.24526356,
        "meta_eccentricity": 0.00043128,
        "meta_inclination": 97.456,
        "meta_ra_of_asc_node": 175.0779,
        "meta_arg_of_pericenter": 261.699,
        "meta_mean_anomaly": 98.3759,
        "meta_ephemeris_type": 0,
        "meta_classification_type": "U",
        "meta_norad_cat_id": 58701,
        "meta_element_set_no": 999,
        "meta_rev_at_epoch": 10849,
        "meta_bstar": 0.00020752048,
        "meta_mean_motion_dot": 5.034e-05,
        "meta_mean_motion_ddot": 0,
        "tle_line1": "1 58701U 24004B   25354.25414961  .00005034  00000+0  20752-3 0  9992",
        "tle_line2": "2 58701  97.4560 175.0779 0004312 261.6990  98.3759 15.24526356108495"
      },
      "geometry": {
        "type": "Point",
        "coordinates": [
          -0.3615492257120868,
          29.254067622968012
        ]
      }
    },
    {
      "type": "Feature",
      "properties": {
        "norad_id": 58702,
        "name": "TIANMU-1 17",
        "group": "weather",
        "lat": -55.493617034294644,
        "lon": -15.14166157878,
        "alt_km": 496.9998948839866,
        "timestamp": "2025-12-20T14:38:01.601153+00:00",
        "meta_object_name": "TIANMU-1 17",
        "meta_object_id": "2024-004C",
        "meta_epoch": "2025-12-20T07:17:59.765280",
        "meta_mean_motion": 15.24570676,
        "meta_eccentricity": 0.00035021,
        "meta_inclination": 97.4594,
        "meta_ra_of_asc_node": 175.5416,
        "meta_arg_of_pericenter": 263.629,
        "meta_mean_anomaly": 96.4549,
        "meta_ephemeris_type": 0,
        "meta_classification_type": "U",
        "meta_norad_cat_id": 58702,
        "meta_element_set_no": 999,
        "meta_rev_at_epoch": 10849,
        "meta_bstar": 0.00019695484,
        "meta_mean_motion_dot": 4.78e-05,
        "meta_mean_motion_ddot": 0,
        "tle_line1": "1 58702U 24004C   25354.30416395  .00004780  00000+0  19695-3 0  9993",
        "tle_line2": "2 58702  97.4594 175.5416 0003502 263.6290  96.4549 15.24570676108491"
      },
      "geometry": {
        "type": "Point",
        "coordinates": [
          -15.14166157878,
          -55.493617034294644
        ]
      }
    },
    {
      "type": "Feature",
      "properties": {
        "norad_id": 58703,
        "name": "TIANMU-1 18",
        "group": "weather",
        "lat": -32.49196309144793,
        "lon": -179.1694606522379,
        "alt_km": 497.5220883349757,
        "timestamp": "2025-12-20T14:38:01.601163+00:00",
        "meta_object_name": "TIANMU-1 18",
        "meta_object_id": "2024-004D",
        "meta_epoch": "2025-12-20T06:54:04.257792",
        "meta_mean_motion": 15.24555048,
        "meta_eccentricity": 0.00028665,
        "meta_inclination": 97.4612,
        "meta_ra_of_asc_node": 175.7219,
        "meta_arg_of_pericenter": 261.8201,
        "meta_mean_anomaly": 98.2712,
        "meta_ephemeris_type": 0,
        "meta_classification_type": "U",
        "meta_norad_cat_id": 58703,
        "meta_element_set_no": 999,
        "meta_rev_at_epoch": 10849,
        "meta_bstar": 0.00018945686,
        "meta_mean_motion_dot": 4.593e-05,
        "meta_mean_motion_ddot": 0,
        "tle_line1": "1 58703U 24004D   25354.28754928  .00004593  00000+0  18946-3 0  9998",
        "tle_line2": "2 58703  97.4612 175.7219 0002866 261.8201  98.2712 15.24555048108498"
      },
      "geometry": {
        "type": "Point",
        "coordinates": [
          -179.1694606522379,
          -32.49196309144793
        ]
      }
    },
    {
      "type": "Feature",
      "properties": {
        "norad_id": 58990,
        "name": "INSAT-3DS",
        "group": "weather",
        "lat": -0.027975131004545614,
        "lon": 31.054568644666677,
        "alt_km": 35788.21343470085,
        "timestamp": "2025-12-20T14:38:01.601175+00:00",
        "meta_object_name": "INSAT-3DS",
        "meta_object_id": "2024-033A",
        "meta_epoch": "2025-12-20T03:20:57.892416",
        "meta_mean_motion": 1.00272312,
        "meta_eccentricity": 0.00010823,
        "meta_inclination": 0.0528,
        "meta_ra_of_asc_node": 105.6827,
        "meta_arg_of_pericenter": 165.9506,
        "meta_mean_anomaly": 309.69,
        "meta_ephemeris_type": 0,
        "meta_classification_type": "U",
        "meta_norad_cat_id": 58990,
        "meta_element_set_no": 999,
        "meta_rev_at_epoch": 4527,
        "meta_bstar": 0,
        "meta_mean_motion_dot": -1.32e-06,
        "meta_mean_motion_ddot": 0,
        "tle_line1": "1 58990U 24033A   25354.13955894 -.00000132  00000+0  00000+0 0  9991",
        "tle_line2": "2 58990   0.0528 105.6827 0001082 165.9506 309.6900  1.00272312 45273"
      },
      "geometry": {
        "type": "Point",
        "coordinates": [
          31.054568644666677,
          -0.027975131004545614
        ]
      }
    },
    {
      "type": "Feature",
      "properties": {
        "norad_id": 59051,
        "name": "METEOR-M2 4",
        "group": "weather",
        "lat": 45.42086017327106,
        "lon": 140.31126410855774,
        "alt_km": 817.7165490987791,
        "timestamp": "2025-12-20T14:38:01.601190+00:00",
        "meta_object_name": "METEOR-M2 4",
        "meta_object_id": "2024-039A",
        "meta_epoch": "2025-12-20T07:15:13.589568",
        "meta_mean_motion": 14.22402358,
        "meta_eccentricity": 0.0006632,
        "meta_inclination": 98.6777,
        "meta_ra_of_asc_node": 311.0929,
        "meta_arg_of_pericenter": 336.3293,
        "meta_mean_anomaly": 23.7579,
        "meta_ephemeris_type": 0,
        "meta_classification_type": "U",
        "meta_norad_cat_id": 59051,
        "meta_element_set_no": 999,
        "meta_rev_at_epoch": 9383,
        "meta_bstar": 1.8252021e-05,
        "meta_mean_motion_dot": -3e-08,
        "meta_mean_motion_ddot": 0,
        "tle_line1": "1 59051U 24039A   25354.30224062 -.00000003  00000+0  18252-4 0  9991",
        "tle_line2": "2 59051  98.6777 311.0929 0006632 336.3293  23.7579 14.22402358 93834"
      },
      "geometry": {
        "type": "Point",
        "coordinates": [
          140.31126410855774,
          45.42086017327106
        ]
      }
    },
    {
      "type": "Feature",
      "properties": {
        "norad_id": 60133,
        "name": "GOES 19",
        "group": "weather",
        "lat": 0.006088439453002328,
        "lon": -126.26431960807201,
        "alt_km": 35786.269236561944,
        "timestamp": "2025-12-20T14:38:01.601202+00:00",
        "meta_object_name": "GOES 19",
        "meta_object_id": "2024-119A",
        "meta_epoch": "2025-12-20T04:18:44.856576",
        "meta_mean_motion": 1.00270951,
        "meta_eccentricity": 0.0001053,
        "meta_inclination": 0.0204,
        "meta_ra_of_asc_node": 175.6489,
        "meta_arg_of_pericenter": 147.2376,
        "meta_mean_anomaly": 115.6284,
        "meta_ephemeris_type": 0,
        "meta_classification_type": "U",
        "meta_norad_cat_id": 60133,
        "meta_element_set_no": 999,
        "meta_rev_at_epoch": 516,
        "meta_bstar": 0,
        "meta_mean_motion_dot": -2.24e-06,
        "meta_mean_motion_ddot": 0,
        "tle_line1": "1 60133U 24119A   25354.17968584 -.00000224  00000+0  00000+0 0  9994",
        "tle_line2": "2 60133   0.0204 175.6489 0001053 147.2376 115.6284  1.00270951  5164"
      },
      "geometry": {
        "type": "Point",
        "coordinates": [
          -126.26431960807201,
          0.006088439453002328
        ]
      }
    },
    {
      "type": "Feature",
      "properties": {
        "norad_id": 65815,
        "name": "FENGYUN 3H",
        "group": "weather",
        "lat": -56.97532423412499,
        "lon": -52.41155610316806,
        "alt_km": 833.2135161732504,
        "timestamp": "2025-12-20T14:38:01.601214+00:00",
        "meta_object_name": "FENGYUN 3H",
        "meta_object_id": "2025-219A",
        "meta_epoch": "2025-12-20T03:04:05.160864",
        "meta_mean_motion": 14.19906496,
        "meta_eccentricity": 7.309e-05,
        "meta_inclination": 98.6595,
        "meta_ra_of_asc_node": 293.558,
        "meta_arg_of_pericenter": 105.0613,
        "meta_mean_anomaly": 255.0644,
        "meta_ephemeris_type": 0,
        "meta_classification_type": "U",
        "meta_norad_cat_id": 65815,
        "meta_element_set_no": 999,
        "meta_rev_at_epoch": 1197,
        "meta_bstar": 3.7330179e-05,
        "meta_mean_motion_dot": 3.6e-07,
        "meta_mean_motion_ddot": 0,
        "tle_line1": "1 65815U 25219A   25354.12783751  .00000036  00000+0  37330-4 0  9995",
        "tle_line2": "2 65815  98.6595 293.5580 0000730 105.0613 255.0644 14.19906496 11970"
      },
      "geometry": {
        "type": "Point",
        "coordinates": [
          -52.41155610316806,
          -56.97532423412499
        ]
      }
    }
  ]
}